0 FENGYUN 1C DEB
1 30504U 99025AHS 13282.52011552  .00000323  00000-0  18317-3 0  3977
2 30504 098.7925 223.5528 0121585 241.0277 173.9091 14.13203242345415
0 FENGYUN 1C DEB
1 30504U 99025AHS 13284.09394507  .00000204  00000-0  12349-3 0  3983
2 30504 098.7928 225.0996 0121628 236.5123 260.8490 14.13204627345632
0 FENGYUN 1C DEB
1 30504U 99025AHS 13285.30135039  .00000131  00000-0  87082-4 0  3998
2 30504 098.7931 226.2862 0121649 233.0457 283.5988 14.13205201345808
0 FENGYUN 1C DEB
1 30504U 99025AHS 13286.35768425  .00000205  00000-0  12437-3 0  4001
2 30504 098.7935 227.3244 0121657 230.0123 257.7706 14.13204959345950
0 FENGYUN 1C DEB
1 30504U 99025AHS 13287.83050720  .00000382  00000-0  21217-3 0  4010
2 30504 098.7938 228.7719 0121694 225.7878 190.8578 14.13205162346169
0 FENGYUN 1C DEB
1 30504U 99025AHS 13289.03523270  .00000411  00000-0  22684-3 0  4022
2 30504 098.7941 229.9560 0121750 222.3345 199.9778 14.13206045346337
0 FENGYUN 1C DEB
1 30504U 99025AHS 13290.10944196  .00000340  00000-0  19136-3 0  4036
2 30504 098.7943 231.0120 0121802 219.2654 265.0768 14.13207033346489
0 FENGYUN 1C DEB
1 30504U 99025AHS 13291.31862719  .00000235  00000-0  13869-3 0  4041
2 30504 098.7944 232.2006 0121869 215.8015 296.8836 14.13208634346657
0 FENGYUN 1C DEB
1 30504U 99025AHS 13292.78123899  .00000213  00000-0  12795-3 0  4056
2 30504 098.7945 233.6385 0121921 211.6183 178.0192 14.13209940346862
0 FENGYUN 1C DEB
1 30504U 99025AHS 13294.35856297  .00000277  00000-0  15973-3 0  4068
2 30504 098.7947 235.1891 0121997 207.1059 282.7740 14.13210332347082
0 FENGYUN 1C DEB
1 30504U 99025AHS 13295.83269324  .00000412  00000-0  22705-3 0  4074
2 30504 098.7947 236.6385 0122070 202.9028 222.5169 14.13210129347292
